{
  "type": "FeatureCollection",
  "features": [
    {
      "type": "Feature",
      "properties": {
        "norad_id": 34540,
        "name": "IRIDIUM 33 DEB",
        "group": "iridium-33-debris",
        "lat": 42.10275408101554,
        "lon": 128.50790123374793,
        "alt_km": 636.0251570808132,
        "timestamp": "2025-12-03T10:52:57.840136+00:00",
        "meta_object_name": "IRIDIUM 33 DEB",
        "meta_object_id": "1997-051JH",
        "meta_epoch": "2025-12-02T23:06:26.517024",
        "meta_mean_motion": 14.74974705,
        "meta_eccentricity": 0.0014764,
        "meta_inclination": 86.3092,
        "meta_ra_of_asc_node": 312.0761,
        "meta_arg_of_pericenter": 195.1731,
        "meta_mean_anomaly": 219.1113,
        "meta_ephemeris_type": 0,
        "meta_classification_type": "U",
        "meta_norad_cat_id": 34540,
        "meta_element_set_no": 999,
        "meta_rev_at_epoch": 88877,
        "meta_bstar": 0.0022389,
        "meta_mean_motion_dot": 0.00015115,
        "meta_mean_motion_ddot": 0,
        "tle_line1": "1 34540U 97051JH  25336.96280691  .00015115  00000+0  22389-2 0  9996",
        "tle_line2": "2 34540  86.3092 312.0761 0014764 195.1731 219.1113 14.74974705888779"
      },
      "geometry": {
        "type": "Point",
        "coordinates": [
          128.50790123374793,
          42.10275408101554
        ]
      }
    },
    {
      "type": "Feature",
      "properties": {
        "norad_id": 34648,
        "name": "IRIDIUM 33 DEB",
        "group": "iridium-33-debris",
        "lat": -75.31966252634213,
        "lon": 119.63649677287493,
        "alt_km": 818.6785684938077,
        "timestamp": "2025-12-03T10:52:57.840147+00:00",
        "meta_object_name": "IRIDIUM 33 DEB",
        "meta_object_id": "1997-051JZ",
        "meta_epoch": "2025-12-01T03:11:38.418720",
        "meta_mean_motion": 14.1087899,
        "meta_eccentricity": 0.01868529,
        "meta_inclination": 86.3903,
        "meta_ra_of_asc_node": 286.6295,
        "meta_arg_of_pericenter": 334.6513,
        "meta_mean_anomaly": 24.5588,
        "meta_ephemeris_type": 0,
        "meta_classification_type": "U",
        "meta_norad_cat_id": 34648,
        "meta_element_set_no": 999,
        "meta_rev_at_epoch": 84797,
        "meta_bstar": 0.0079356223,
        "meta_mean_motion_dot": 0.00016788,
        "meta_mean_motion_ddot": 0,
        "tle_line1": "1 34648U 97051JZ  25335.13308355  .00016788  00000+0  79356-2 0  9994",
        "tle_line2": "2 34648  86.3903 286.6295 0186852 334.6513  24.5588 14.10878990847973"
      },
      "geometry": {
        "type": "Point",
        "coordinates": [
          119.63649677287493,
          -75.31966252634213
        ]
      }
    },
    {
      "type": "Feature",
      "properties": {
        "norad_id": 34651,
        "name": "IRIDIUM 33 DEB",
        "group": "iridium-33-debris",
        "lat": -12.757840931712563,
        "lon": -34.63141705429011,
        "alt_km": 733.4091863987505,
        "timestamp": "2025-12-03T10:52:57.840158+00:00",
        "meta_object_name": "IRIDIUM 33 DEB",
        "meta_object_id": "1997-051KC",
        "meta_epoch": "2025-12-02T05:19:54.206688",
        "meta_mean_motion": 14.25531146,
        "meta_eccentricity": 0.0141862,
        "meta_inclination": 86.2826,
        "meta_ra_of_asc_node": 145.0488,
        "meta_arg_of_pericenter": 237.4272,
        "meta_mean_anomaly": 121.3155,
        "meta_ephemeris_type": 0,
        "meta_classification_type": "U",
        "meta_norad_cat_id": 34651,
        "meta_element_set_no": 999,
        "meta_rev_at_epoch": 85746,
        "meta_bstar": 0.0036308,
        "meta_mean_motion_dot": 9.56e-05,
        "meta_mean_motion_ddot": 0,
        "tle_line1": "1 34651U 97051KC  25336.22215517  .00009560  00000+0  36308-2 0  9996",
        "tle_line2": "2 34651  86.2826 145.0488 0141862 237.4272 121.3155 14.25531146857462"
      },
      "geometry": {
        "type": "Point",
        "coordinates": [
          -34.63141705429011,
          -12.757840931712563
        ]
      }
    },
    {
      "type": "Feature",
      "properties": {
        "norad_id": 34652,
        "name": "IRIDIUM 33 DEB",
        "group": "iridium-33-debris",
        "lat": 66.23883943549261,
        "lon": 155.75665059843394,
        "alt_km": 695.6513693402676,
        "timestamp": "2025-12-03T10:52:57.840169+00:00",
        "meta_object_name": "IRIDIUM 33 DEB",
        "meta_object_id": "1997-051KD",
        "meta_epoch": "2025-12-02T12:03:44.445600",
        "meta_mean_motion": 14.61898676,
        "meta_eccentricity": 0.00270627,
        "meta_inclination": 86.3312,
        "meta_ra_of_asc_node": 344.5601,
        "meta_arg_of_pericenter": 334.9096,
        "meta_mean_anomaly": 177.4047,
        "meta_ephemeris_type": 0,
        "meta_classification_type": "U",
        "meta_norad_cat_id": 34652,
        "meta_element_set_no": 999,
        "meta_rev_at_epoch": 88334,
        "meta_bstar": 0.0012168376,
        "meta_mean_motion_dot": 6.139e-05,
        "meta_mean_motion_ddot": 0,
        "tle_line1": "1 34652U 97051KD  25336.50259775  .00006139  00000+0  12168-2 0  9999",
        "tle_line2": "2 34652  86.3312 344.5601 0027062 334.9096 177.4047 14.61898676883341"
      },
      "geometry": {
        "type": "Point",
        "coordinates": [
          155.75665059843394,
          66.23883943549261
        ]
      }
    },
    {
      "type": "Feature",
      "properties": {
        "norad_id": 34690,
        "name": "IRIDIUM 33 DEB",
        "group": "iridium-33-debris",
        "lat": -27.248846368340207,
        "lon": -137.10423077918475,
        "alt_km": 722.4267566834778,
        "timestamp": "2025-12-03T10:52:57.840179+00:00",
        "meta_object_name": "IRIDIUM 33 DEB",
        "meta_object_id": "1997-051KM",
        "meta_epoch": "2025-12-02T11:05:34.177632",
        "meta_mean_motion": 14.5503094,
        "meta_eccentricity": 0.00118516,
        "meta_inclination": 86.3794,
        "meta_ra_of_asc_node": 41.4576,
        "meta_arg_of_pericenter": 59.8454,
        "meta_mean_anomaly": 358.3612,
        "meta_ephemeris_type": 0,
        "meta_classification_type": "U",
        "meta_norad_cat_id": 34690,
        "meta_element_set_no": 999,
        "meta_rev_at_epoch": 87945,
        "meta_bstar": 0.00062693819,
        "meta_mean_motion_dot": 2.723e-05,
        "meta_mean_motion_ddot": 0,
        "tle_line1": "1 34690U 97051KM  25336.46220113  .00002723  00000+0  62694-3 0  9995",
        "tle_line2": "2 34690  86.3794  41.4576 0011851  59.8454 358.3612 14.55030940879451"
      },
      "geometry": {
        "type": "Point",
        "coordinates": [
          -137.10423077918475,
          -27.248846368340207
        ]
      }
    },
    {
      "type": "Feature",
      "properties": {
        "norad_id": 34693,
        "name": "IRIDIUM 33 DEB",
        "group": "iridium-33-debris",
        "lat": 37.45288601148171,
        "lon": -48.735961371072136,
        "alt_km": 479.5598148109666,
        "timestamp": "2025-12-03T10:52:57.840190+00:00",
        "meta_object_name": "IRIDIUM 33 DEB",
        "meta_object_id": "1997-051KQ",
        "meta_epoch": "2025-12-02T22:20:48.476832",
        "meta_mean_motion": 15.24488571,
        "meta_eccentricity": 0.0016088,
        "meta_inclination": 86.3048,
        "meta_ra_of_asc_node": 308.6845,
        "meta_arg_of_pericenter": 67.5745,
        "meta_mean_anomaly": 345.3417,
        "meta_ephemeris_type": 0,
        "meta_classification_type": "U",
        "meta_norad_cat_id": 34693,
        "meta_element_set_no": 999,
        "meta_rev_at_epoch": 88765,
        "meta_bstar": 0.0056535,
        "meta_mean_motion_dot": 0.00141805,
        "meta_mean_motion_ddot": 0,
        "tle_line1": "1 34693U 97051KQ  25336.93111663  .00141805  00000+0  56535-2 0  9990",
        "tle_line2": "2 34693  86.3048 308.6845 0016088  67.5745 345.3417 15.24488571887653"
      },
      "geometry": {
        "type": "Point",
        "coordinates": [
          -48.735961371072136,
          37.45288601148171
        ]
      }
    },
    {
      "type": "Feature",
      "properties": {
        "norad_id": 34696,
        "name": "IRIDIUM 33 DEB",
        "group": "iridium-33-debris",
        "lat": 23.701004364596706,
        "lon": 33.51812475531749,
        "alt_km": 731.798740227483,
        "timestamp": "2025-12-03T10:52:57.840200+00:00",
        "meta_object_name": "IRIDIUM 33 DEB",
        "meta_object_id": "1997-051KT",
        "meta_epoch": "2025-12-02T22:27:23.457888",
        "meta_mean_motion": 14.64186349,
        "meta_eccentricity": 0.0074931,
        "meta_inclination": 86.1858,
        "meta_ra_of_asc_node": 32.0803,
        "meta_arg_of_pericenter": 200.6573,
        "meta_mean_anomaly": 335.8637,
        "meta_ephemeris_type": 0,
        "meta_classification_type": "U",
        "meta_norad_cat_id": 34696,
        "meta_element_set_no": 999,
        "meta_rev_at_epoch": 86529,
        "meta_bstar": 0.0077467,
        "meta_mean_motion_dot": 0.0004269,
        "meta_mean_motion_ddot": 0,
        "tle_line1": "1 34696U 97051KT  25336.93568817  .00042690  00000+0  77467-2 0  9999",
        "tle_line2": "2 34696  86.1858  32.0803 0074931 200.6573 335.8637 14.64186349865290"
      },
      "geometry": {
        "type": "Point",
        "coordinates": [
          33.51812475531749,
          23.701004364596706
        ]
      }
    }
  ]
}